NORAD_CAT_ID,OBJECT_NAME,OBJECT_TYPE,EPOCH,MEAN_MOTION,ECCENTRICITY,INCLINATION,RA_OF_ASC_NODE,ARG_OF_PERICENTER,MEAN_ANOMALY,BSTAR,MEAN_MOTION_DOT,MEAN_MOTION_DDOT,TLE_LINE0,TLE_LINE1,TLE_LINE2,SEMIMAJOR_AXIS,PERIOD,APOGEE,PERIGEE,DECAYED
53627.0,STARLINK-4595,PAYLOAD,2023-09-28 08:10:44,15.08832595,0.0001536,53.2175,284.2395,97.9986,262.118,-2.3264e-05,-6.58e-06,0.0,0 STARLINK-4595,1 53627U 22104AR  23271.34079335 -.00000658  00000-0 -23264-4 0  9993,2 53627  53.2175 284.2395 0001536  97.9986 262.1180 15.08832595 60208,6917.903,95.438,540.831,538.705,0.0
53627.0,STARLINK-4595,PAYLOAD,2023-09-29 08:01:31,15.08843237,0.0001411,53.2172,279.7783,91.2103,268.9051,0.000182,2.61e-05,0.0,0 STARLINK-4595,1 53627U 22104AR  23272.33438662  .00002610  00000-0  18200-3 0  9996,2 53627  53.2172 279.7783 0001411  91.2103 268.9051 15.08843237 60357,6917.87,95.437,540.712,538.759,0.0
53627.0,STARLINK-4595,PAYLOAD,2023-09-30 04:41:31,15.08841593,0.0001369,53.2164,275.9124,91.9902,268.1247,0.00016767,2.382e-05,0.0,0 STARLINK-4595,1 53627U 22104AR  23273.19550918  .00002382  00000-0  16767-3 0  9992,2 53627  53.2164 275.9124 0001369  91.9902 268.1247 15.08841593 61174,6917.876,95.437,540.688,538.793,0.0
53627.0,STARLINK-4595,PAYLOAD,2023-09-30 17:24:37,15.08840026,0.0001532,53.2165,273.5339,83.9302,276.1865,4.3366e-05,4.02e-06,0.0,0 STARLINK-4595,1 53627U 22104AR  23273.72542956  .00000402  00000-0  43366-4 0  9991,2 53627  53.2165 273.5339 0001532  83.9302 276.1865 15.08840026 60561,6917.88,95.438,540.805,538.685,0.0
53627.0,STARLINK-4595,PAYLOAD,2023-10-01 09:18:28,15.08845625,0.0001568,53.2168,270.5586,87.1029,273.0143,2.4239e-05,9.8e-07,0.0,0 STARLINK-4595,1 53627U 22104AR  23274.38783037  .00000098  00000-0  24239-4 0  9990,2 53627  53.2168 270.5586 0001568  87.1029 273.0143 15.08845625 61359,6917.863,95.437,540.813,538.643,0.0
53627.0,STARLINK-4595,PAYLOAD,2023-10-01 17:15:24,15.08840482,0.0001527,53.2173,269.0716,85.8387,274.278,2.3367e-05,8.4e-07,0.0,0 STARLINK-4595,1 53627U 22104AR  23274.71903309  .00000084  00000-0  23367-4 0  9999,2 53627  53.2173 269.0716 0001527  85.8387 274.2780 15.08840482 61402,6917.879,95.438,540.8,538.688,0.0
53627.0,STARLINK-4595,PAYLOAD,2023-10-02 09:09:15,15.08846235,0.0001418,53.2165,266.0965,102.2606,257.8545,1.3468e-05,-7.4e-07,0.0,0 STARLINK-4595,1 53627U 22104AR  23275.38142855 -.00000074  00000-0  13468-4 0  9995,2 53627  53.2165 266.0965 0001418 102.2606 257.8545 15.08846235 60815,6917.861,95.437,540.707,538.745,0.0
53627.0,STARLINK-4595,PAYLOAD,2023-10-03 09:00:02,15.08847953,0.000146,53.2158,261.6349,111.42,248.6948,0.00019029,2.742e-05,0.0,0 STARLINK-4595,1 53627U 22104AR  23276.37502808  .00002742  00000-0  19029-3 0  9994,2 53627  53.2158 261.6349 0001460 111.4200 248.6948 15.08847953 61659,6917.856,95.437,540.731,538.711,0.0
53627.0,STARLINK-4595,PAYLOAD,2023-10-04 15:12:22,15.08835723,0.0001447,53.2155,255.9848,107.559,252.556,-3.6242e-05,-8.65e-06,0.0,0 STARLINK-4595,1 53627U 22104AR  23277.63359537 -.00000865  00000-0 -36242-4 0  9996,2 53627  53.2155 255.9848 0001447 107.5590 252.5560 15.08835723 61150,6917.893,95.438,540.759,538.757,0.0
53627.0,STARLINK-4595,PAYLOAD,2023-10-05 02:20:04,15.08845172,0.0001479,53.2162,253.9072,107.8122,252.3031,6.7293e-05,7.83e-06,0.0,0 STARLINK-4595,1 53627U 22104AR  23278.09727235  .00000783  00000-0  67293-4 0  9998,2 53627  53.2162 253.9072 0001479 107.8122 252.3031 15.08845172 61222,6917.865,95.437,540.753,538.706,0.0
53627.0,STARLINK-4595,PAYLOAD,2023-10-05 07:06:13,15.08853789,0.0001516,53.2164,253.0169,108.0132,252.1025,0.00022403,3.281e-05,0.0,0 STARLINK-4595,1 53627U 22104AR  23278.29598790  .00003281  00000-0  22403-3 0  9991,2 53627  53.2164 253.0169 0001516 108.0132 252.1025 15.08853789 61255,6917.838,95.437,540.752,538.654,0.0
53627.0,STARLINK-4595,PAYLOAD,2023-10-05 15:03:08,15.08847399,0.0001514,53.2166,251.528,100.3505,259.7658,7.1484e-05,8.5e-06,0.0,0 STARLINK-4595,1 53627U 22104AR  23278.62718579  .00000850  00000-0  71484-4 0  9990,2 53627  53.2166 251.5280 0001514 100.3505 259.7658 15.08847399 61997,6917.858,95.437,540.77,538.675,0.0
53627.0,STARLINK-4595,PAYLOAD,2023-10-06 02:10:51,15.0884134,0.0001853,53.2188,249.4516,115.876,244.2423,-3.3982e-06,-3.42e-06,0.0,0 STARLINK-4595,1 53627U 22104AR  23279.09087450 -.00000342  00000-0 -33982-5 0  9999,2 53627  53.2188 249.4516 0001853 115.8760 244.2423 15.08841340 61370,6917.876,95.437,541.023,538.459,0.0
53627.0,STARLINK-4595,PAYLOAD,2023-10-06 06:57:00,15.088474,0.0001491,53.217,248.5562,103.487,256.6289,0.00012157,1.648e-05,0.0,0 STARLINK-4595,1 53627U 22104AR  23279.28959066  .00001648  00000-0  12157-3 0  9998,2 53627  53.2170 248.5562 0001491 103.4870 256.6289 15.08847400 62095,6917.858,95.437,540.754,538.691,0.0
53627.0,STARLINK-4595,PAYLOAD,2023-10-07 02:01:39,15.08835809,0.0002017,53.2184,244.9886,90.0167,270.1056,-3.9512e-05,-9.17e-06,0.0,0 STARLINK-4595,1 53627U 22104AR  23280.08447978 -.00000917  00000-0 -39512-4 0  9997,2 53627  53.2184 244.9886 0002017  90.0167 270.1056 15.08835809 61524,6917.893,95.438,541.154,538.363,0.0
53627.0,STARLINK-4595,PAYLOAD,2023-10-07 06:47:48,15.08839676,0.0001592,53.2167,244.0937,87.6643,272.4532,1.5467e-05,-4.2e-07,0.0,0 STARLINK-4595,1 53627U 22104AR  23280.28319708 -.00000042  00000-0  15467-4 0  9999,2 53627  53.2167 244.0937 0001592  87.6643 272.4532 15.08839676 62241,6917.881,95.438,540.848,538.645,0.0
53627.0,STARLINK-4595,PAYLOAD,2023-10-07 21:06:16,15.08835379,0.0001373,53.2164,241.4186,92.1098,268.0051,0.00010967,1.458e-05,0.0,0 STARLINK-4595,1 53627U 22104AR  23280.87936090  .00001458  00000-0  10967-3 0  9993,2 53627  53.2164 241.4186 0001373  92.1098 268.0051 15.08835379 62330,6917.895,95.438,540.709,538.81,0.0
53627.0,STARLINK-4595,PAYLOAD,2023-10-08 08:13:57,15.088537,0.0001472,53.2171,239.334,96.9073,263.2086,0.00024711,3.648e-05,0.0,0 STARLINK-4595,1 53627U 22104AR  23281.34303001  .00003648  00000-0  24711-3 0  9991,2 53627  53.2171 239.3340 0001472  96.9073 263.2086 15.08853700 61715,6917.839,95.437,540.722,538.685,0.0
53627.0,STARLINK-4595,PAYLOAD,2023-10-08 20:57:03,15.08841904,0.0001463,53.2171,236.9564,95.9657,264.1502,8.2021e-05,1.018e-05,0.0,0 STARLINK-4595,1 53627U 22104AR  23281.87295914  .00001018  00000-0  82021-4 0  9990,2 53627  53.2171 236.9564 0001463  95.9657 264.1502 15.08841904 62484,6917.875,95.437,540.752,538.727,0.0
53627.0,STARLINK-4595,PAYLOAD,2023-10-09 03:18:35,15.08848278,0.0001576,53.2164,235.768,95.2215,264.8957,0.0001722,2.454e-05,0.0,0 STARLINK-4595,1 53627U 22104AR  23282.13791562  .00002454  00000-0  17220-3 0  9993,2 53627  53.2164 235.7680 0001576  95.2215 264.8957 15.08848278 61830,6917.855,95.437,540.81,538.63,0.0
53627.0,STARLINK-4595,PAYLOAD,2023-10-09 06:29:22,15.08849942,0.0001551,53.2161,235.1732,94.2493,265.8676,0.00019721,2.853e-05,0.0,0 STARLINK-4595,1 53627U 22104AR  23282.27039466  .00002853  00000-0  19721-3 0  9997,2 53627  53.2161 235.1732 0001551  94.2493 265.8676 15.08849942 62546,6917.85,95.437,540.788,538.642,0.0
53627.0,STARLINK-4595,PAYLOAD,2023-10-10 03:09:23,15.08845036,0.0001757,53.2178,231.307,86.4908,273.6285,2.6488e-05,1.34e-06,0.0,0 STARLINK-4595,1 53627U 22104AR  23283.13151744  .00000134  00000-0  26488-4 0  9996,2 53627  53.2178 231.3070 0001757  86.4908 273.6285 15.08845036 61989,6917.865,95.437,540.945,538.515,0.0
53627.0,STARLINK-4595,PAYLOAD,2023-10-10 06:20:09,15.08846991,0.0001723,53.2178,230.7112,94.2544,265.8645,6.3487e-05,7.23e-06,0.0,0 STARLINK-4595,1 53627U 22104AR  23283.26399561  .00000723  00000-0  63487-4 0  9995,2 53627  53.2178 230.7112 0001723  94.2544 265.8645 15.08846991 62698,6917.859,95.437,540.916,538.532,0.0
53627.0,STARLINK-4595,PAYLOAD,2023-10-10 14:17:05,15.08832427,0.000202,53.2171,229.2266,89.7137,270.4087,-0.00015266,-2.717e-05,0.0,0 STARLINK-4595,1 53627U 22104AR  23283.59520455 -.00002717  00000-0 -15266-3 0  9997,2 53627  53.2171 229.2266 0002020  89.7137 270.4087 15.08832427 62053,6917.904,95.438,541.166,538.371,0.0
53627.0,STARLINK-4595,PAYLOAD,2023-10-10 20:38:38,15.088314,0.0001851,53.217,228.0356,102.9879,257.1319,-2.7021e-05,-7.18e-06,0.0,0 STARLINK-4595,1 53627U 22104AR  23283.86016858 -.00000718  00000-0 -27021-4 0  9996,2 53627  53.2170 228.0356 0001851 102.9879 257.1319 15.08831400 62781,6917.907,95.438,541.052,538.491,0.0
53627.0,STARLINK-4595,PAYLOAD,2023-10-11 06:10:57,15.0883652,0.0001622,53.2172,226.2519,100.5405,259.577,8.6032e-05,1.081e-05,0.0,0 STARLINK-4595,1 53627U 22104AR  23284.25760548  .00001081  00000-0  86032-4 0  9991,2 53627  53.2172 226.2519 0001622 100.5405 259.5770 15.08836520 62841,6917.891,95.438,540.878,538.634,0.0
53627.0,STARLINK-4595,PAYLOAD,2023-10-12 04:26:20,15.08857596,0.0001452,53.2172,222.0911,93.6956,266.4203,0.00066932,0.00010385,0.0,0 STARLINK-4595,1 53627U 22104AR  23285.18496286  .00010385  00000-0  66932-3 0  9992,2 53627  53.2172 222.0911 0001452  93.6956 266.4203 15.08857596 62298,6917.827,95.436,540.696,538.687,0.0
53627.0,STARLINK-4595,PAYLOAD,2023-10-12 06:01:43,15.08862673,0.0001371,53.2165,221.792,93.6247,266.4902,0.0010641,0.00016698,0.0,0 STARLINK-4595,1 53627U 22104AR  23285.25120324  .00016698  00000-0  10641-2 0  9995,2 53627  53.2165 221.7920 0001371  93.6247 266.4902 15.08862673 62994,6917.811,95.436,540.625,538.728,0.0
53627.0,STARLINK-4595,PAYLOAD,2023-10-13 02:41:44,15.08865029,0.0001127,53.2164,217.9247,96.7398,263.3722,0.0010198,0.0001599,0.0,0 STARLINK-4595,1 53627U 22104AR  23286.11232134  .00015990  00000-0  10198-2 0  9995,2 53627  53.2164 217.9247 0001127  96.7398 263.3722 15.08865029 62435,6917.804,95.436,540.449,538.889,0.0
53627.0,STARLINK-4595,PAYLOAD,2023-10-13 12:14:03,15.08852943,0.0001242,53.2171,216.141,97.7893,262.324,0.0011826,0.0001859,0.0,0 STARLINK-4595,1 53627U 22104AR  23286.50976042  .00018590  00000-0  11826-2 0  9999,2 53627  53.2171 216.1410 0001242  97.7893 262.3240 15.08852943 62496,6917.841,95.437,540.565,538.847,0.0
